0 SL-12 DEB
1 27805U 92047L   13282.76051017  .00003007  00000-0  32851-2 0  7053
2 27805 065.2377 171.3649 4791656 107.6396 000.3150 05.75660907240779
0 SL-12 DEB
1 27805U 92047L   13283.60428676  .00003144  00000-0  35131-2 0  7063
2 27805 065.2396 170.8918 4790991 107.5647 308.9375 05.75653576240828
0 SL-12 DEB
1 27805U 92047L   13283.80463745  .00002977  00000-0  32653-2 0  7060
2 27805 065.2371 170.7839 4791579 107.5483 004.1241 05.75669138240832
0 SL-12 DEB
1 27805U 92047L   13285.53477363  .00002552  00000-0  28077-2 0  7089
2 27805 065.2376 169.8163 4791439 107.4011 349.6590 05.75677535240932
0 SL-12 DEB
1 27805U 92047L   13287.80025939  .00004159  00000-0  45825-2 0  7095
2 27805 065.2382 168.5513 4791269 107.2092 004.7687 05.75697589241064
0 SL-12 DEB
1 27805U 92047L   13289.52934042  .00003458  00000-0  37888-2 0  7103
2 27805 065.2390 167.5852 4791102 107.0615 348.3136 05.75716661241163
0 SL-12 DEB
1 27805U 92047L   13290.57349751  .00004361  00000-0  47888-2 0  7113
2 27805 065.2391 167.0021 4790968 106.9726 352.4127 05.75721628241229
0 SL-12 DEB
1 27805U 92047L   13292.48206904  .00003423  00000-0  37412-2 0  7128
2 27805 065.2392 165.9345 4790917 106.8113 348.1363 05.75730089241336
0 SL-12 DEB
1 27805U 92047L   13292.83791269  .00004511  00000-0  49513-2 0  7135
2 27805 065.2396 165.7351 4790886 106.7794 005.6817 05.75736820241354
0 SL-12 DEB
1 27805U 92047L   13294.04546532  .00003642  00000-0  39975-2 0  7147
2 27805 065.2397 165.0630 4790696 106.6716 348.5065 05.75751655241425
0 SL-12 DEB
1 27805U 92047L   13295.78611444  .00003794  00000-0  41808-2 0  7151
2 27805 065.2403 164.0842 4790659 106.5273 356.3741 05.75763609241524
